[
    {
        "Altitude(m)": 564598.5639832481,
        "Argument of Periapsis(deg)": 0.019868973332140504,
        "Eccentricity": 0.0,
        "Inclination(deg)": 53.0,
        "Latitude(deg)": -35.3163200783434,
        "Longitude(deg)": 110.5498574431143,
        "Mean Anomaly(deg)": -46.0888213972672,
        "RAAN(deg)": 244.9704301055841,
        "Satellite Name": "Starlink Shell 1 1095",
        "Satellite Number": 1095,
        "Semi-Major Axis(m)": 6931778.249405717,
        "Time(s)": 570
    },
    {
        "Altitude(m)": 564425.888830528,
        "Argument of Periapsis(deg)": 0.02021755181165174,
        "Eccentricity": 0.0,
        "Inclination(deg)": 53.0,
        "Latitude(deg)": -34.89030899264224,
        "Longitude(deg)": 111.06876188526459,
        "Mean Anomaly(deg)": -45.46199019371054,
        "RAAN(deg)": 244.9699113355066,
        "Satellite Name": "Starlink Shell 1 1095",
        "Satellite Number": 1095,
        "Semi-Major Axis(m)": 6931778.249405717,
        "Time(s)": 580
    },
    {
        "Altitude(m)": 564252.6428049441,
        "Argument of Periapsis(deg)": 0.020566130291162974,
        "Eccentricity": 0.0,
        "Inclination(deg)": 53.0,
        "Latitude(deg)": -34.46170135892326,
        "Longitude(deg)": 111.58191612139035,
        "Mean Anomaly(deg)": -44.83515899015382,
        "RAAN(deg)": 244.96939256542916,
        "Satellite Name": "Starlink Shell 1 1095",
        "Satellite Number": 1095,
        "Semi-Major Axis(m)": 6931778.249405717,
        "Time(s)": 590
    },
    {
        "Altitude(m)": 564078.8921650394,
        "Argument of Periapsis(deg)": 0.020914708770674213,
        "Eccentricity": 0.0,
        "Inclination(deg)": 53.0,
        "Latitude(deg)": -34.03056268339481,
        "Longitude(deg)": 112.08943593749683,
        "Mean Anomaly(deg)": -44.208327786597145,
        "RAAN(deg)": 244.96887379535167,
        "Satellite Name": "Starlink Shell 1 1095",
        "Satellite Number": 1095,
        "Semi-Major Axis(m)": 6931778.249405717,
        "Time(s)": 600
    },
    {
        "Altitude(m)": 563904.7032491834,
        "Argument of Periapsis(deg)": 0.021263287250185448,
        "Eccentricity": 0.0,
        "Inclination(deg)": 53.0,
        "Latitude(deg)": -33.596956998501334,
        "Longitude(deg)": 112.5914362650033,
        "Mean Anomaly(deg)": -43.581496583040455,
        "RAAN(deg)": 244.96835502527418,
        "Satellite Name": "Starlink Shell 1 1095",
        "Satellite Number": 1095,
        "Semi-Major Axis(m)": 6931778.249405717,
        "Time(s)": 610
    },
    {
        "Altitude(m)": 563730.142445927,
        "Argument of Periapsis(deg)": 0.021611865729696686,
        "Eccentricity": 0.0,
        "Inclination(deg)": 53.0,
        "Latitude(deg)": -33.16094689487232,
        "Longitude(deg)": 113.08803161442493,
        "Mean Anomaly(deg)": -42.95466537948363,
        "RAAN(deg)": 244.96783625519672,
        "Satellite Name": "Starlink Shell 1 1095",
        "Satellite Number": 1095,
        "Semi-Major Axis(m)": 6931778.249405717,
        "Time(s)": 620
    },
    {
        "Altitude(m)": 563555.2761643209,
        "Argument of Periapsis(deg)": 0.02196044420920792,
        "Eccentricity": 0.0,
        "Inclination(deg)": 53.0,
        "Latitude(deg)": -32.72259355352113,
        "Longitude(deg)": 113.57933483574597,
        "Mean Anomaly(deg)": -42.32783417592697,
        "RAAN(deg)": 244.96731748511928,
        "Satellite Name": "Starlink Shell 1 1095",
        "Satellite Number": 1095,
        "Semi-Major Axis(m)": 6931778.249405717,
        "Time(s)": 630
    },
    {
        "Altitude(m)": 563380.170804231,
        "Argument of Periapsis(deg)": 0.02230902268871916,
        "Eccentricity": 0.0,
        "Inclination(deg)": 53.0,
        "Latitude(deg)": -32.28195677819993,
        "Longitude(deg)": 114.0654584074296,
        "Mean Anomaly(deg)": -41.70100297237029,
        "RAAN(deg)": 244.96679871504176,
        "Satellite Name": "Starlink Shell 1 1095",
        "Satellite Number": 1095,
        "Semi-Major Axis(m)": 6931778.249405717,
        "Time(s)": 640
    },
    {
        "Altitude(m)": 563204.8927266066,
        "Argument of Periapsis(deg)": 0.022657601168230398,
        "Eccentricity": 0.0,
        "Inclination(deg)": 53.0,
        "Latitude(deg)": -31.83909502782339,
        "Longitude(deg)": 114.54651321069937,
        "Mean Anomaly(deg)": -41.074171768813464,
        "RAAN(deg)": 244.96627994496433,
        "Satellite Name": "Starlink Shell 1 1095",
        "Satellite Number": 1095,
        "Semi-Major Axis(m)": 6931778.249405717,
        "Time(s)": 650
    },
    {
        "Altitude(m)": 563029.5082237956,
        "Argument of Periapsis(deg)": 0.023006179647741636,
        "Eccentricity": 0.0,
        "Inclination(deg)": 53.0,
        "Latitude(deg)": -31.39406544888497,
        "Longitude(deg)": 115.02260899107776,
        "Mean Anomaly(deg)": -40.44734056525677,
        "RAAN(deg)": 244.9657611748868,
        "Satellite Name": "Starlink Shell 1 1095",
        "Satellite Number": 1095,
        "Semi-Major Axis(m)": 6931778.249405717,
        "Time(s)": 660
    },
    {
        "Altitude(m)": 562854.0834898555,
        "Argument of Periapsis(deg)": 0.023354758127252868,
        "Eccentricity": 0.0,
        "Inclination(deg)": 53.0,
        "Latitude(deg)": -30.946923907792765,
        "Longitude(deg)": 115.49385482579618,
        "Mean Anomaly(deg)": -39.820509361700104,
        "RAAN(deg)": 244.96524240480932,
        "Satellite Name": "Starlink Shell 1 1095",
        "Satellite Number": 1095,
        "Semi-Major Axis(m)": 6931778.249405717,
        "Time(s)": 670
    },
    {
        "Altitude(m)": 562678.6845909171,
        "Argument of Periapsis(deg)": 0.023703336606764106,
        "Eccentricity": 0.0,
        "Inclination(deg)": 53.0,
        "Latitude(deg)": -30.497725023063033,
        "Longitude(deg)": 115.96035808380515,
        "Mean Anomaly(deg)": -39.193678158143385,
        "RAAN(deg)": 244.9647236347319,
        "Satellite Name": "Starlink Shell 1 1095",
        "Satellite Number": 1095,
        "Semi-Major Axis(m)": 6931778.249405717,
        "Time(s)": 680
    },
    {
        "Altitude(m)": 562503.3774355514,
        "Argument of Periapsis(deg)": 0.024051915086275345,
        "Eccentricity": 0.0,
        "Inclination(deg)": 53.0,
        "Latitude(deg)": -30.046522197315088,
        "Longitude(deg)": 116.422224903751,
        "Mean Anomaly(deg)": -38.56684695458671,
        "RAAN(deg)": 244.96420486465442,
        "Satellite Name": "Starlink Shell 1 1095",
        "Satellite Number": 1095,
        "Semi-Major Axis(m)": 6931778.249405717,
        "Time(s)": 690
    },
    {
        "Altitude(m)": 562328.2277452813,
        "Argument of Periapsis(deg)": 0.024400493565786583,
        "Eccentricity": 0.0,
        "Inclination(deg)": 53.0,
        "Latitude(deg)": -29.59336764901587,
        "Longitude(deg)": 116.87956067668853,
        "Mean Anomaly(deg)": -37.94001575102994,
        "RAAN(deg)": 244.96368609457693,
        "Satellite Name": "Starlink Shell 1 1095",
        "Satellite Number": 1095,
        "Semi-Major Axis(m)": 6931778.249405717,
        "Time(s)": 700
    },
    {
        "Altitude(m)": 562153.3010250743,
        "Argument of Periapsis(deg)": 0.024749072045297815,
        "Eccentricity": 0.0,
        "Inclination(deg)": 53.0,
        "Latitude(deg)": -29.138312443929607,
        "Longitude(deg)": 117.33246902031591,
        "Mean Anomaly(deg)": -37.31318454747329,
        "RAAN(deg)": 244.9631673244995,
        "Satellite Name": "Starlink Shell 1 1095",
        "Satellite Number": 1095,
        "Semi-Major Axis(m)": 6931778.249405717,
        "Time(s)": 710
    },
    {
        "Altitude(m)": 561978.6625340093,
        "Argument of Periapsis(deg)": 0.025097650524809053,
        "Eccentricity": 0.0,
        "Inclination(deg)": 53.0,
        "Latitude(deg)": -28.681406526232845,
        "Longitude(deg)": 117.78105227015682,
        "Mean Anomaly(deg)": -36.68635334391642,
        "RAAN(deg)": 244.962648554422,
        "Satellite Name": "Starlink Shell 1 1095",
        "Satellite Number": 1095,
        "Semi-Major Axis(m)": 6931778.249405717,
        "Time(s)": 720
    },
    {
        "Altitude(m)": 561804.3772559816,
        "Argument of Periapsis(deg)": 0.02544622900432029,
        "Eccentricity": 0.0,
        "Inclination(deg)": 53.0,
        "Latitude(deg)": -28.222698749262538,
        "Longitude(deg)": 118.22541197450984,
        "Mean Anomaly(deg)": -36.059522140359746,
        "RAAN(deg)": 244.9621297843445,
        "Satellite Name": "Starlink Shell 1 1095",
        "Satellite Number": 1095,
        "Semi-Major Axis(m)": 6931778.249405717,
        "Time(s)": 730
    },
    {
        "Altitude(m)": 561630.5098705852,
        "Argument of Periapsis(deg)": 0.02579480748383153,
        "Eccentricity": 0.0,
        "Inclination(deg)": 53.0,
        "Latitude(deg)": -27.76223690586166,
        "Longitude(deg)": 118.66564788001163,
        "Mean Anomaly(deg)": -35.43269093680313,
        "RAAN(deg)": 244.96161101426705,
        "Satellite Name": "Starlink Shell 1 1095",
        "Satellite Number": 1095,
        "Semi-Major Axis(m)": 6931778.249405717,
        "Time(s)": 740
    },
    {
        "Altitude(m)": 561457.1247240783,
        "Argument of Periapsis(deg)": 0.026143385963342765,
        "Eccentricity": 0.0,
        "Inclination(deg)": 53.0,
        "Latitude(deg)": -27.300067758302447,
        "Longitude(deg)": 119.10185843328337,
        "Mean Anomaly(deg)": -34.80585973324636,
        "RAAN(deg)": 244.96109224418956,
        "Satellite Name": "Starlink Shell 1 1095",
        "Satellite Number": 1095,
        "Semi-Major Axis(m)": 6931778.249405717,
        "Time(s)": 750
    }
]